IRIDIUM 921             
1 24873U 97034E   25044.07917487  .07257562 -15071-5  73767-3 0  9992
2 24873  86.3428 164.9187 0010278 296.6971 127.2641 16.37936335513009
IRIDIUM 26              
1 24903U 97043A   25043.82697929  .00000799  00000+0  26328-3 0  9995
2 24903  86.4023 162.8273 0002220 100.1830 259.9617 14.36969321438885
IRIDIUM 22              
1 24907U 97043E   25043.86391444  .00000708  00000+0  23812-3 0  9991
2 24907  86.4028 166.2385 0002070  94.4196 265.7237 14.35802307438937
DUMMY MASS 1            
1 24925U 97048A   25043.91568424  .00000893  00000+0  97130-4 0  9996
2 24925  86.3382 192.7289 0005217 209.8764 150.2164 14.86789584486662
DUMMY MASS 2            
1 24926U 97048B   25043.92448515  .00000869  00000+0  95076-4 0  9996
2 24926  86.3380 194.3079 0005627 226.5548 133.5209 14.86542839486447
IRIDIUM 29              
1 24944U 97051A   25043.92979528  .00000844  00000+0  28229-3 0  9991
2 24944  86.3992 195.9538 0001887  88.5596 271.5817 14.36275015435431
IRIDIUM 33              
1 24946U 97051C   25043.91684405  .00000565  00000+0  19241-3 0  9993
2 24946  86.3910 195.2102 0009651 117.8419 242.3756 14.34760178434928
IRIDIUM 28              
1 24948U 97051E   25043.91403213  .00000761  00000+0  24927-3 0  9996
2 24948  86.4003 193.5492 0002389  99.9375 260.2093 14.37210588435998
